[{"OBJECT_NAME":"DONGPO 02","OBJECT_ID":"2022-098J","EPOCH":"2026-03-09T23:27:05.924160","MEAN_MOTION":15.59463601,"ECCENTRICITY":0.00021558,"INCLINATION":97.5385,"RA_OF_ASC_NODE":192.9325,"ARG_OF_PERICENTER":312.765,"MEAN_ANOMALY":47.3424,"EPHEMERIS_TYPE":0,"CLASSIFICATION_TYPE":"U","NORAD_CAT_ID":53452,"ELEMENT_SET_NO":999,"REV_AT_EPOCH":19926,"BSTAR":0.00088877097,"MEAN_MOTION_DOT":0.00070735,"MEAN_MOTION_DDOT":0},{"OBJECT_NAME":"AETHER-1","OBJECT_ID":"2023-174AB","EPOCH":"2026-03-09T17:17:51.429696","MEAN_MOTION":15.59029667,"ECCENTRICITY":0.00048301,"INCLINATION":97.3866,"RA_OF_ASC_NODE":157.5943,"ARG_OF_PERICENTER":156.7796,"MEAN_ANOMALY":203.368,"EPHEMERIS_TYPE":0,"CLASSIFICATION_TYPE":"U","NORAD_CAT_ID":58281,"ELEMENT_SET_NO":999,"REV_AT_EPOCH":13035,"BSTAR":0.0011500755,"MEAN_MOTION_DOT":0.00090327,"MEAN_MOTION_DDOT":0}]
